NORAD_CAT_ID,OBJECT_NAME,OBJECT_TYPE,EPOCH,MEAN_MOTION,ECCENTRICITY,INCLINATION,RA_OF_ASC_NODE,ARG_OF_PERICENTER,MEAN_ANOMALY,BSTAR,MEAN_MOTION_DOT,MEAN_MOTION_DDOT,TLE_LINE0,TLE_LINE1,TLE_LINE2,SEMIMAJOR_AXIS,PERIOD,APOGEE,PERIGEE,DECAYED
53738.0,STARLINK-4662,PAYLOAD,2023-09-09 19:25:15,15.08844756,0.0001343,53.2179,37.4829,85.6913,274.4232,0.00011055,1.472e-05,0.0,0 STARLINK-4662,1 53738U 22107AQ  23252.80920977  .00001472  00000-0  11055-3 0  9993,2 53738  53.2179  37.4829 0001343  85.6913 274.4232 15.08844756 56150,6917.866,95.437,540.66,538.802,0.0
53738.0,STARLINK-4662,PAYLOAD,2023-09-10 12:54:30,15.08839567,0.000135,53.2173,34.2113,87.2615,272.8531,3.4864e-05,2.67e-06,0.0,0 STARLINK-4662,1 53738U 22107AQ  23253.53785292  .00000267  00000-0  34864-4 0  9998,2 53738  53.2173  34.2113 0001350  87.2615 272.8531 15.08839567 56899,6917.882,95.438,540.681,538.813,0.0
53738.0,STARLINK-4662,PAYLOAD,2023-09-11 14:20:40,15.08836504,0.0001253,53.2188,29.4531,93.2913,266.8222,9.4716e-05,1.22e-05,0.0,0 STARLINK-4662,1 53738U 22107AQ  23254.59769617  .00001220  00000-0  94716-4 0  9990,2 53738  53.2188  29.4531 0001253  93.2913 266.8222 15.08836504 57052,6917.891,95.438,540.623,538.889,0.0
53738.0,STARLINK-4662,PAYLOAD,2023-09-11 15:56:03,15.08838677,0.000124,53.2186,29.1563,88.4591,271.6543,0.00010612,1.401e-05,0.0,0 STARLINK-4662,1 53738U 22107AQ  23254.66393439  .00001401  00000-0  10612-3 0  9996,2 53738  53.2186  29.1563 0001240  88.4591 271.6543 15.08838677 56430,6917.884,95.438,540.607,538.892,0.0
53738.0,STARLINK-4662,PAYLOAD,2023-09-12 12:36:04,15.08838282,0.0001361,53.219,25.2916,90.9439,269.1709,8.6416e-05,1.088e-05,0.0,0 STARLINK-4662,1 53738U 22107AQ  23255.52505598  .00001088  00000-0  86416-4 0  9990,2 53738  53.2190  25.2916 0001361  90.9439 269.1709 15.08838282 57199,6917.886,95.438,540.692,538.809,0.0
53738.0,STARLINK-4662,PAYLOAD,2023-09-12 15:46:50,15.08844876,0.0001407,53.2194,24.6958,89.3027,270.8127,7.6845e-05,9.35e-06,0.0,0 STARLINK-4662,1 53738U 22107AQ  23255.65753178  .00000935  00000-0  76845-4 0  9998,2 53738  53.2194  24.6958 0001407  89.3027 270.8127 15.08844876 57210,6917.865,95.437,540.704,538.757,0.0
53738.0,STARLINK-4662,PAYLOAD,2023-09-13 01:19:09,15.08845928,0.0001505,53.2203,22.9123,89.8946,270.2219,7.9572e-05,9.79e-06,0.0,0 STARLINK-4662,1 53738U 22107AQ  23256.05497042  .00000979  00000-0  79572-4 0  9996,2 53738  53.2203  22.9123 0001505  89.8946 270.2219 15.08845928 56641,6917.862,95.437,540.768,538.686,0.0
53738.0,STARLINK-4662,PAYLOAD,2023-09-13 12:26:51,15.08847067,0.0001349,53.2194,20.8321,96.6907,263.4239,0.00010603,1.4e-05,0.0,0 STARLINK-4662,1 53738U 22107AQ  23256.51864926  .00001400  00000-0  10603-3 0  9995,2 53738  53.2194  20.8321 0001349  96.6907 263.4239 15.08847067 57346,6917.859,95.437,540.657,538.791,0.0
53738.0,STARLINK-4662,PAYLOAD,2023-09-13 18:48:23,15.08860471,0.0001304,53.2188,19.6426,97.708,262.406,0.00026952,4.006e-05,0.0,0 STARLINK-4662,1 53738U 22107AQ  23256.78359961  .00004006  00000-0  26952-3 0  9991,2 53738  53.2188  19.6426 0001304  97.7080 262.4060 15.08860471 57385,6917.818,95.436,540.585,538.781,0.0
53738.0,STARLINK-4662,PAYLOAD,2023-09-14 01:09:56,15.08833883,0.0001851,53.2189,18.451,78.3299,281.7901,-0.00012546,-2.284e-05,0.0,0 STARLINK-4662,1 53738U 22107AQ  23257.04857402 -.00002284  00000-0 -12546-3 0  9996,2 53738  53.2189  18.4510 0001851  78.3299 281.7901 15.08833883 56790,6917.899,95.438,541.045,538.484,0.0
53738.0,STARLINK-4662,PAYLOAD,2023-09-14 12:17:39,15.08815427,0.0001484,53.2193,16.3711,81.7496,278.3665,-0.00031303,-5.263e-05,0.0,0 STARLINK-4662,1 53738U 22107AQ  23257.51226698 -.00005263  00000-0 -31303-3 0  9997,2 53738  53.2193  16.3711 0001484  81.7496 278.3665 15.08815427 57495,6917.955,95.439,540.847,538.794,0.0
53738.0,STARLINK-4662,PAYLOAD,2023-09-14 17:03:49,15.08822934,0.0001383,53.2193,15.4789,85.7032,274.4118,-0.00021045,-3.634e-05,0.0,0 STARLINK-4662,1 53738U 22107AQ  23257.71098537 -.00003634  00000-0 -21045-3 0  9990,2 53738  53.2193  15.4789 0001383  85.7032 274.4118 15.08822934 56892,6917.933,95.439,540.754,538.841,0.0
53738.0,STARLINK-4662,PAYLOAD,2023-09-15 13:43:49,15.08844307,0.0001824,53.2197,11.6132,54.3988,305.7173,3.1005e-06,-2.39e-06,0.0,0 STARLINK-4662,1 53738U 22107AQ  23258.57210357 -.00000239  00000-0  31005-5 0  9997,2 53738  53.2197  11.6132 0001824  54.3988 305.7173 15.08844307 57650,6917.867,95.437,540.994,538.47,0.0
53738.0,STARLINK-4662,PAYLOAD,2023-09-15 16:54:35,15.0885627,0.0001349,53.2197,11.0181,75.1267,284.9874,0.00010521,1.388e-05,0.0,0 STARLINK-4662,1 53738U 22107AQ  23258.70457192  .00001388  00000-0  10521-3 0  9995,2 53738  53.2197  11.0181 0001349  75.1267 284.9874 15.08856270 57042,6917.831,95.437,540.629,538.762,0.0
53738.0,STARLINK-4662,PAYLOAD,2023-09-16 00:51:31,15.08848271,0.000117,53.2199,9.5287,90.9028,269.2098,-7.3535e-06,-4.05e-06,0.0,0 STARLINK-4662,1 53738U 22107AQ  23259.03577681 -.00000405  00000-0 -73535-5 0  9995,2 53738  53.2199   9.5287 0001170  90.9028 269.2098 15.08848271 57096,6917.855,95.437,540.529,538.911,0.0
53738.0,STARLINK-4662,PAYLOAD,2023-09-16 07:13:04,15.08835657,0.000183,53.2192,8.343,77.0771,283.0425,0.0001689,2.401e-05,0.0,0 STARLINK-4662,1 53738U 22107AQ  23259.30074503  .00002401  00000-0  16890-3 0  9995,2 53738  53.2192   8.3430 0001830  77.0771 283.0425 15.08835657 57137,6917.894,95.438,541.025,538.493,0.0
53738.0,STARLINK-4662,PAYLOAD,2023-09-16 13:34:36,15.08837245,0.0001537,53.2193,7.1535,80.1574,279.9591,0.0002393,3.522e-05,0.0,0 STARLINK-4662,1 53738U 22107AQ  23259.56570460  .00003522  00000-0  23930-3 0  9994,2 53738  53.2193   7.1535 0001537  80.1574 279.9591 15.08837245 57808,6917.889,95.438,540.817,538.691,0.0
53738.0,STARLINK-4662,PAYLOAD,2023-09-17 10:14:37,15.0885251,0.0001454,53.2196,3.2901,80.1519,279.9637,1.818e-06,-2.59e-06,0.0,0 STARLINK-4662,1 53738U 22107AQ  23260.42682196 -.00000259  00000-0  18180-5 0  9999,2 53738  53.2196   3.2901 0001454  80.1519 279.9637 15.08852510 57300,6917.842,95.437,540.713,538.701,0.0
53738.0,STARLINK-4662,PAYLOAD,2023-09-17 13:25:23,15.08852197,0.0001627,53.2198,2.6955,68.7684,291.3482,2.6562e-05,1.35e-06,0.0,0 STARLINK-4662,1 53738U 22107AQ  23260.55930100  .00000135  00000-0  26562-4 0  9998,2 53738  53.2198   2.6955 0001627  68.7684 291.3482 15.08852197 57959,6917.843,95.437,540.834,538.583,0.0
53738.0,STARLINK-4662,PAYLOAD,2023-09-18 10:05:24,15.0884186,0.0001612,53.2193,358.8291,77.9486,282.1687,4.9716e-05,5.03e-06,0.0,0 STARLINK-4662,1 53738U 22107AQ  23261.42042402  .00000503  00000-0  49716-4 0  9999,2 53738  53.2193 358.8291 0001612  77.9486 282.1687 15.08841860 57454,6917.875,95.437,540.855,538.625,0.0
53738.0,STARLINK-4662,PAYLOAD,2023-09-18 13:16:10,15.08844903,0.0001469,53.2198,358.2351,88.2536,271.8625,4.1455e-05,3.72e-06,0.0,0 STARLINK-4662,1 53738U 22107AQ  23261.55290114  .00000372  00000-0  41455-4 0  9994,2 53738  53.2198 358.2351 0001469  88.2536 271.8625 15.08844903 58102,6917.865,95.437,540.747,538.714,0.0
53738.0,STARLINK-4662,PAYLOAD,2023-09-18 18:02:19,15.08855017,0.0001393,53.2189,357.3407,94.218,265.8971,0.00013091,1.797e-05,0.0,0 STARLINK-4662,1 53738U 22107AQ  23261.75161118  .00001797  00000-0  13091-3 0  9993,2 53738  53.2189 357.3407 0001393  94.2180 265.8971 15.08855017 58130,6917.834,95.437,540.663,538.736,0.0
53738.0,STARLINK-4662,PAYLOAD,2023-09-19 09:56:10,15.08845836,0.0001565,53.2196,354.3651,102.1184,257.9984,5.4538e-05,5.8e-06,0.0,0 STARLINK-4662,1 53738U 22107AQ  23262.41401538  .00000580  00000-0  54538-4 0  9991,2 53738  53.2196 354.3651 0001565 102.1184 257.9984 15.08845836 57605,6917.863,95.437,540.81,538.645,0.0
53738.0,STARLINK-4662,PAYLOAD,2023-09-19 17:53:05,15.08864314,0.0001465,53.2192,352.8794,106.4669,253.6484,0.00018165,2.606e-05,0.0,0 STARLINK-4662,1 53738U 22107AQ  23262.74519743  .00002606  00000-0  18165-3 0  9991,2 53738  53.2192 352.8794 0001465 106.4669 253.6484 15.08864314 57651,6917.806,95.436,540.685,538.658,0.0
53738.0,STARLINK-4662,PAYLOAD,2023-09-20 12:57:46,15.08823727,0.000122,53.2188,349.315,89.5576,270.5556,-0.0001813,-3.171e-05,0.0,0 STARLINK-4662,1 53738U 22107AQ  23263.54012025 -.00003171  00000-0 -18130-3 0  9993,2 53738  53.2188 349.3150 0001220  89.5576 270.5556 15.08823727 57774,6917.93,95.439,540.639,538.951,0.0
53738.0,STARLINK-4662,PAYLOAD,2023-09-20 17:43:56,15.08818816,0.0001349,53.2197,348.4234,79.7635,280.3509,-0.0001099,-2.035e-05,0.0,0 STARLINK-4662,1 53738U 22107AQ  23263.73884498 -.00002035  00000-0 -10990-3 0  9999,2 53738  53.2197 348.4234 0001349  79.7635 280.3509 15.08818816 58430,6917.945,95.439,540.743,538.877,0.0
53738.0,STARLINK-4662,PAYLOAD,2023-09-21 09:37:45,15.08846604,0.0001381,53.2186,345.4478,83.0273,277.0876,0.00015103,2.117e-05,0.0,0 STARLINK-4662,1 53738U 22107AQ  23264.40122549  .00002117  00000-0  15103-3 0  9996,2 53738  53.2186 345.4478 0001381  83.0273 277.0876 15.08846604 57904,6917.86,95.437,540.681,538.77,0.0
53738.0,STARLINK-4662,PAYLOAD,2023-09-21 12:48:32,15.08847826,0.0001382,53.2183,344.8533,81.4211,278.6938,0.00037467,5.681e-05,0.0,0 STARLINK-4662,1 53738U 22107AQ  23264.53370719  .00005681  00000-0  37467-3 0  9990,2 53738  53.2183 344.8533 0001382  81.4211 278.6938 15.08847826 58556,6917.856,95.437,540.678,538.765,0.0
53738.0,STARLINK-4662,PAYLOAD,2023-09-21 15:59:18,15.0885504,0.000143,53.2176,344.2575,67.7016,292.4127,0.00080724,0.00012588,0.0,0 STARLINK-4662,1 53738U 22107AQ  23264.66618816  .00012588  00000-0  80724-3 0  9995,2 53738  53.2176 344.2575 0001430  67.7016 292.4127 15.08855040 58575,6917.834,95.437,540.689,538.71,0.0
53738.0,STARLINK-4662,PAYLOAD,2023-09-22 04:42:23,15.0885183,0.000143,53.2172,341.8788,70.6811,289.4336,0.00050138,7.703e-05,0.0,0 STARLINK-4662,1 53738U 22107AQ  23265.19611017  .00007703  00000-0  50138-3 0  9999,2 53738  53.2172 341.8788 0001430  70.6811 289.4336 15.08851830 58027,6917.844,95.437,540.698,538.72,0.0
